{
  "norad_id": 67617,
  "name": "STARLINK-36548",
  "history": [
    {
      "epoch": "2026-03-28T13:04:18.420096",
      "apogee_km": 481.0203356531056,
      "perigee_km": 479.99153921248944,
      "latitude_deg": 31.469409443196273,
      "longitude_deg": -86.0128665601369,
      "semi_major_axis_km": 6858.642937432797,
      "eccentricity": 7.5e-05,
      "inclination_deg": 43.0038,
      "raan_deg": 33.6197,
      "arg_perigee_deg": 266.7696,
      "mean_anomaly_deg": 93.307,
      "mean_motion_rev_day": 15.2842971
    },
    {
      "epoch": "2026-03-29T03:11:14.530848",
      "apogee_km": 480.95756670572973,
      "perigee_km": 479.9205500057078,
      "latitude_deg": -31.88706396109544,
      "longitude_deg": -29.55052127991803,
      "semi_major_axis_km": 6858.5760583557185,
      "eccentricity": 7.56e-05,
      "inclination_deg": 43.0028,
      "raan_deg": 30.2928,
      "arg_perigee_deg": 272.0668,
      "mean_anomaly_deg": 88.0098,
      "mean_motion_rev_day": 15.28452066
    }
  ]
}